start=new Date('2021-10-09T00:00:00.000Z').valueOf();
sats=[{"OBJECT_TYPE":"PAYLOAD","COUNTRY_CODE":"US","RA_OF_ASC_NODE":"292.3677","MEAN_MOTION":"15.06397521","REV_AT_EPOCH":"3349","MEAN_MOTION_DDOT":"0.0000000000000","LAUNCH_DATE":"2021-03-11","GP_ID":"186596252","INCLINATION":"53.0544","DECAY_DATE":null,"EPOCH":"2021-10-08T18:08:28.463136","MEAN_ELEMENT_THEORY":"SGP4","FILE":"3152020","SEMIMAJOR_AXIS":"6925.356","TLE_LINE2":"2 47845  53.0544 292.3677 0000956  76.3045 283.8050 15.06397521 33496","SITE":"AFETR","TLE_LINE1":"1 47845U 21018BL  21281.75588499  .00002272  00000-0  17137-3 0  9994","RCS_SIZE":"LARGE","PERIAPSIS":"546.559","MEAN_ANOMALY":"283.8050","TIME_SYSTEM":"UTC","ELEMENT_SET_NO":"999","CENTER_NAME":"EARTH","EPHEMERIS_TYPE":"0","MEAN_MOTION_DOT":"0.00002272","ARG_OF_PERICENTER":"76.3045","PERIOD":"95.592","APOAPSIS":"547.883","OBJECT_NAME":"STARLINK-2453","NORAD_CAT_ID":"47845","REF_FRAME":"TEME","ECCENTRICITY":"0.00009560","BSTAR":"0.00017137000000","OBJECT_ID":"2021-018BL","CLASSIFICATION_TYPE":"U"},{"TIME_SYSTEM":"UTC","ELEMENT_SET_NO":"999","MEAN_ANOMALY":"294.8043","CENTER_NAME":"EARTH","EPHEMERIS_TYPE":"0","REF_FRAME":"TEME","NORAD_CAT_ID":"47846","APOAPSIS":"548.254","OBJECT_NAME":"STARLINK-2456","ARG_OF_PERICENTER":"65.3098","PERIOD":"95.593","MEAN_MOTION_DOT":"-0.00000489","CLASSIFICATION_TYPE":"U","OBJECT_ID":"2021-018BM","ECCENTRICITY":"0.00014580","BSTAR":"-0.00001393900000","RA_OF_ASC_NODE":"292.3834","MEAN_MOTION":"15.06389859","COUNTRY_CODE":"US","OBJECT_TYPE":"PAYLOAD","DECAY_DATE":null,"EPOCH":"2021-10-08T18:03:10.075680","GP_ID":"186596499","INCLINATION":"53.0541","LAUNCH_DATE":"2021-03-11","REV_AT_EPOCH":"3354","MEAN_MOTION_DDOT":"0.0000000000000","SEMIMAJOR_AXIS":"6925.380","FILE":"3152020","MEAN_ELEMENT_THEORY":"SGP4","TLE_LINE1":"1 47846U 21018BM  21281.75219995 -.00000489  00000-0 -13939-4 0  9994","PERIAPSIS":"546.235","RCS_SIZE":"LARGE","SITE":"AFETR","TLE_LINE2":"2 47846  53.0541 292.3834 0001458  65.3098 294.8043 15.06389859 33548"},{"MEAN_MOTION":"15.06398329","RA_OF_ASC_NODE":"322.0546","COUNTRY_CODE":"US","OBJECT_TYPE":"PAYLOAD","DECAY_DATE":null,"EPOCH":"2021-10-08T19:45:20.091744","GP_ID":"186595502","INCLINATION":"53.0577","LAUNCH_DATE":"2021-03-14","REV_AT_EPOCH":"3285","MEAN_MOTION_DDOT":"0.0000000000000","SEMIMAJOR_AXIS":"6925.354","MEAN_ELEMENT_THEORY":"SGP4","FILE":"3152020","TLE_LINE1":"1 47860U 21021A   21281.82314921  .00002511  00000-0  18738-3 0  9994","PERIAPSIS":"546.573","RCS_SIZE":"LARGE","SITE":"AFETR","TLE_LINE2":"2 47860  53.0577 322.0546 0000932  85.2702 274.8394 15.06398329 32855","TIME_SYSTEM":"UTC","ELEMENT_SET_NO":"999","MEAN_ANOMALY":"274.8394","CENTER_NAME":"EARTH","EPHEMERIS_TYPE":"0","REF_FRAME":"TEME","NORAD_CAT_ID":"47860","APOAPSIS":"547.864","OBJECT_NAME":"STARLINK-2258","ARG_OF_PERICENTER":"85.2702","PERIOD":"95.592","MEAN_MOTION_DOT":"0.00002511","CLASSIFICATION_TYPE":"U","OBJECT_ID":"2021-021A","ECCENTRICITY":"0.00009320","BSTAR":"0.00018738000000"},{"CENTER_NAME":"EARTH","EPHEMERIS_TYPE":"0","TIME_SYSTEM":"UTC","ELEMENT_SET_NO":"999","MEAN_ANOMALY":"274.1182","CLASSIFICATION_TYPE":"U","OBJECT_ID":"2021-021B","ECCENTRICITY":"0.00006010","BSTAR":"0.00004315900000","REF_FRAME":"TEME","NORAD_CAT_ID":"47861","APOAPSIS":"547.623","OBJECT_NAME":"STARLINK-2280","ARG_OF_PERICENTER":"85.9876","PERIOD":"95.592","MEAN_MOTION_DOT":"0.00000362","DECAY_DATE":null,"EPOCH":"2021-10-08T18:35:40.085664","GP_ID":"186596754","INCLINATION":"53.0573","LAUNCH_DATE":"2021-03-14","REV_AT_EPOCH":"3316","MEAN_MOTION_DDOT":"0.0000000000000","MEAN_MOTION":"15.06402244","RA_OF_ASC_NODE":"307.2739","COUNTRY_CODE":"US","OBJECT_TYPE":"PAYLOAD","TLE_LINE1":"1 47861U 21021B   21281.77476951  .00000362  00000-0  43159-4 0  9999","RCS_SIZE":"LARGE","PERIAPSIS":"546.790","SITE":"AFETR","TLE_LINE2":"2 47861  53.0573 307.2739 0000601  85.9876 274.1182 15.06402244 33168","SEMIMAJOR_AXIS":"6925.342","MEAN_ELEMENT_THEORY":"SGP4","FILE":"3152020"},{"SITE":"AFETR","TLE_LINE2":"2 47862  53.0560 302.3582 0000798  73.5955 286.5122 15.06400075 33223","RCS_SIZE":"LARGE","PERIAPSIS":"546.661","TLE_LINE1":"1 47862U 21021C   21281.75495776 -.00000123  00000-0  10648-4 0  9997","MEAN_ELEMENT_THEORY":"SGP4","FILE":"3152020","SEMIMAJOR_AXIS":"6925.348","MEAN_MOTION_DDOT":"0.0000000000000","REV_AT_EPOCH":"3322","LAUNCH_DATE":"2021-03-14","INCLINATION":"53.0560","GP_ID":"186597001","EPOCH":"2021-10-08T18:07:08.350464","DECAY_DATE":null,"OBJECT_TYPE":"PAYLOAD","COUNTRY_CODE":"US","RA_OF_ASC_NODE":"302.3582","MEAN_MOTION":"15.06400075","BSTAR":"0.00001064800000","ECCENTRICITY":"0.00007980","OBJECT_ID":"2021-021C","CLASSIFICATION_TYPE":"U","MEAN_MOTION_DOT":"-0.00000123","PERIOD":"95.592","ARG_OF_PERICENTER":"73.5955","OBJECT_NAME":"STARLINK-2291","APOAPSIS":"547.766","NORAD_CAT_ID":"47862","REF_FRAME":"TEME","EPHEMERIS_TYPE":"0","CENTER_NAME":"EARTH","MEAN_ANOMALY":"286.5122","ELEMENT_SET_NO":"999","TIME_SYSTEM":"UTC"},{"APOAPSIS":"547.991","OBJECT_NAME":"STARLINK-2293","REF_FRAME":"TEME","NORAD_CAT_ID":"47863","MEAN_MOTION_DOT":"-0.00000116","ARG_OF_PERICENTER":"78.1872","PERIOD":"95.593","CLASSIFICATION_TYPE":"U","ECCENTRICITY":"0.00010570","BSTAR":"0.00001113100000","OBJECT_ID":"2021-021D","TIME_SYSTEM":"UTC","ELEMENT_SET_NO":"999","MEAN_ANOMALY":"281.9235","CENTER_NAME":"EARTH","EPHEMERIS_TYPE":"0","SEMIMAJOR_AXIS":"6925.394","MEAN_ELEMENT_THEORY":"SGP4","FILE":"3152020","SITE":"AFETR","TLE_LINE2":"2 47863  53.0551 312.2465 0001057  78.1872 281.9235 15.06385313 33098","TLE_LINE1":"1 47863U 21021D   21281.77984193 -.00000116  00000-0  11131-4 0  9996","PERIAPSIS":"546.527","RCS_SIZE":"LARGE","COUNTRY_CODE":"US","MEAN_MOTION":"15.06385313","RA_OF_ASC_NODE":"312.2465","OBJECT_TYPE":"PAYLOAD","GP_ID":"186595753","INCLINATION":"53.0551","DECAY_DATE":null,"EPOCH":"2021-10-08T18:42:58.342752","REV_AT_EPOCH":"3309","MEAN_MOTION_DDOT":"0.0000000000000","LAUNCH_DATE":"2021-03-14"},{"CLASSIFICATION_TYPE":"U","ECCENTRICITY":"0.00008590","BSTAR":"-0.00000140400000","OBJECT_ID":"2021-021E","APOAPSIS":"547.837","OBJECT_NAME":"STARLINK-2304","REF_FRAME":"TEME","NORAD_CAT_ID":"47864","MEAN_MOTION_DOT":"-0.00000302","PERIOD":"95.593","ARG_OF_PERICENTER":"86.4423","CENTER_NAME":"EARTH","EPHEMERIS_TYPE":"0","TIME_SYSTEM":"UTC","ELEMENT_SET_NO":"999","MEAN_ANOMALY":"273.6664","SITE":"AFETR","TLE_LINE2":"2 47864  53.0565 302.3636 0000859  86.4423 273.6664 15.06390599 33206","TLE_LINE1":"1 47864U 21021E   21281.75401481 -.00000302  00000-0 -14040-5 0  9990","RCS_SIZE":"LARGE","PERIAPSIS":"546.647","SEMIMAJOR_AXIS":"6925.377","FILE":"3152020","MEAN_ELEMENT_THEORY":"SGP4","GP_ID":"186596003","INCLINATION":"53.0565","DECAY_DATE":null,"EPOCH":"2021-10-08T18:05:46.879584","REV_AT_EPOCH":"3320","MEAN_MOTION_DDOT":"0.0000000000000","LAUNCH_DATE":"2021-03-14","COUNTRY_CODE":"US","RA_OF_ASC_NODE":"302.3636","MEAN_MOTION":"15.06390599","OBJECT_TYPE":"PAYLOAD"},{"OBJECT_TYPE":"PAYLOAD","RA_OF_ASC_NODE":"312.0548","MEAN_MOTION":"15.06402057","COUNTRY_CODE":"US","LAUNCH_DATE":"2021-03-14","MEAN_MOTION_DDOT":"0.0000000000000","REV_AT_EPOCH":"3320","EPOCH":"2021-10-08T19:41:20.472576","DECAY_DATE":null,"INCLINATION":"53.0552","GP_ID":"186596254","MEAN_ELEMENT_THEORY":"SGP4","FILE":"3152020","SEMIMAJOR_AXIS":"6925.342","RCS_SIZE":"LARGE","PERIAPSIS":"546.461","TLE_LINE1":"1 47865U 21021F   21281.82037584 -.00000050  00000-0  15510-4 0  9999","TLE_LINE2":"2 47865  53.0552 312.0548 0001078  98.6995 261.4116 15.06402057 33206","SITE":"AFETR","MEAN_ANOMALY":"261.4116","ELEMENT_SET_NO":"999","TIME_SYSTEM":"UTC","EPHEMERIS_TYPE":"0","CENTER_NAME":"EARTH","PERIOD":"95.592","ARG_OF_PERICENTER":"98.6995","MEAN_MOTION_DOT":"-0.00000050","REF_FRAME":"TEME","NORAD_CAT_ID":"47865","OBJECT_NAME":"STARLINK-2310","APOAPSIS":"547.954","OBJECT_ID":"2021-021F","BSTAR":"0.00001551000000","ECCENTRICITY":"0.00010780","CLASSIFICATION_TYPE":"U"},{"EPHEMERIS_TYPE":"0","CENTER_NAME":"EARTH","ELEMENT_SET_NO":"999","TIME_SYSTEM":"UTC","MEAN_ANOMALY":"275.3614","CLASSIFICATION_TYPE":"U","BSTAR":"0.00002156500000","ECCENTRICITY":"0.00009360","OBJECT_ID":"2021-021G","OBJECT_NAME":"STARLINK-2320","APOAPSIS":"547.875","NORAD_CAT_ID":"47866","REF_FRAME":"TEME","MEAN_MOTION_DOT":"0.00000040","PERIOD":"95.592","ARG_OF_PERICENTER":"84.7482","INCLINATION":"53.0563","GP_ID":"186596501","EPOCH":"2021-10-08T19:46:39.655776","DECAY_DATE":null,"MEAN_MOTION_DDOT":"0.0000000000000","REV_AT_EPOCH":"3325","LAUNCH_DATE":"2021-03-14","COUNTRY_CODE":"US","RA_OF_ASC_NODE":"312.0435","MEAN_MOTION":"15.06395797","OBJECT_TYPE":"PAYLOAD","SITE":"AFETR","TLE_LINE2":"2 47866  53.0563 312.0435 0000936  84.7482 275.3614 15.06395797 33257","RCS_SIZE":"MEDIUM","PERIAPSIS":"546.578","TLE_LINE1":"1 47866U 21021G   21281.82407009  .00000040  00000-0  21565-4 0  9998","SEMIMAJOR_AXIS":"6925.361","MEAN_ELEMENT_THEORY":"SGP4","FILE":"3152020"},{"SEMIMAJOR_AXIS":"6925.337","MEAN_ELEMENT_THEORY":"SGP4","FILE":"3152020","RCS_SIZE":"LARGE","PERIAPSIS":"546.730","TLE_LINE1":"1 47867U 21021H   21281.75127917  .00001712  00000-0  13379-3 0  9998","TLE_LINE2":"2 47867  53.0549 302.3685 0000681  80.7361 279.3705 15.06403759 33185","SITE":"AFETR","RA_OF_ASC_NODE":"302.3685","MEAN_MOTION":"15.06403759","COUNTRY_CODE":"US","OBJECT_TYPE":"PAYLOAD","EPOCH":"2021-10-08T18:01:50.520288","DECAY_DATE":null,"INCLINATION":"53.0549","GP_ID":"186595253","LAUNCH_DATE":"2021-03-14","MEAN_MOTION_DDOT":"0.0000000000000","REV_AT_EPOCH":"3318","REF_FRAME":"TEME","NORAD_CAT_ID":"47867","OBJECT_NAME":"STARLINK-2321","APOAPSIS":"547.674","ARG_OF_PERICENTER":"80.7361","PERIOD":"95.592","MEAN_MOTION_DOT":"0.00001712","CLASSIFICATION_TYPE":"U","OBJECT_ID":"2021-021H","BSTAR":"0.00013379000000","ECCENTRICITY":"0.00006810","ELEMENT_SET_NO":"999","TIME_SYSTEM":"UTC","MEAN_ANOMALY":"279.3705","EPHEMERIS_TYPE":"0","CENTER_NAME":"EARTH"}];
